GSAT0101 (PRN E11)      
1 37846U 11060A   21106.21661876 -.00000080  00000-0  00000-0 0  9992
2 37846  56.8072  32.9822 0004293 355.0393   4.9552  1.70475410 58939
GSAT0102 (PRN E12)      
1 37847U 11060B   21106.42711569 -.00000079  00000-0  00000-0 0  9999
2 37847  56.8079  32.9759 0005281 332.0551 203.3649  1.70475622 58943
GSAT0103 (PRN E19)      
1 38857U 12055A   21106.84474021  .00000048  00000-0  00000-0 0  9996
2 38857  55.0304 153.4313 0004839 265.5559  94.4711  1.70473802 52837
GSAT0104 (PRN E20)      
1 38858U 12055B   21105.01962709  .00000045  00000-0  00000+0 0  9996
2 38858  55.0289 153.4809 0004061 265.8558  94.1872  1.70459340 52903
GSAT0201 (PRN E18)      
1 40128U 14050A   21104.70362419 -.00000104  00000-0  00000-0 0  9991
2 40128  50.4972 349.3632 1650919 109.1956 269.3535  1.85519189 43261
GSAT0202 (PRN E14)      
1 40129U 14050B   21104.96621938 -.00000103  00000-0  00000-0 0  9993
2 40129  50.5295 348.3995 1648222 110.0139 268.4443  1.85519752 45435
GSAT0203 (PRN E26)      
1 40544U 15017A   21107.17120263 -.00000077  00000-0  00000-0 0  9999
2 40544  56.6017  33.0480 0003481 285.5476  74.4151  1.70474640 37033
GSAT0204 (PRN E22)      
1 40545U 15017B   21095.08674574 -.00000091  00000-0  00000+0 0  9990
2 40545  56.6045  33.3971 0001701 267.9516  10.1129  1.70474678 37487
GSAT0205 (PRN E24)      
1 40889U 15045A   21106.60668272  .00000003  00000-0  00000+0 0  9993
2 40889  55.9237 273.7438 0004806  28.2047 331.7828  1.70475428 34835
GSAT0206 (PRN E30)      
1 40890U 15045B   21105.65300665 -.00000002  00000-0  00000-0 0  9999
2 40890  55.9224 273.7663 0003247  26.4674 333.5071  1.70475569 34844
GSAT0209 (PRN E09)      
1 41174U 15079A   21106.41374441  .00000047  00000-0  00000-0 0  9998
2 41174  55.0452 153.1432 0005229 302.6042  57.4292  1.70473756 32592
GSAT0208 (PRN E08)      
1 41175U 15079B   21104.28710536  .00000044  00000-0  00000-0 0  9998
2 41175  55.0447 153.2008 0004542 300.9552  59.0919  1.70473853 32975
GSAT0211 (PRN E02)      
1 41549U 16030A   21107.34106897  .00000007  00000-0  00000-0 0  9999
2 41549  56.0650 273.6079 0003157 349.8414  10.1168  1.70475150 30505
GSAT0210 (PRN E01)      
1 41550U 16030B   21106.46073498  .00000002  00000-0  00000-0 0  9998
2 41550  56.0667 273.6335 0001618 317.1924  42.7559  1.70475270 30489
GSAT0207 (PRN E07)      
1 41859U 16069A   21106.70641076  .00000047  00000-0  00000-0 0  9991
2 41859  54.7049 153.4223 0005315 290.8020  69.2239  1.70473699 27223
GSAT0212 (PRN E03)      
1 41860U 16069B   21105.38667844  .00000045  00000-0  00000-0 0  9995
2 41860  54.7020 153.4572 0004007 308.2647  51.7873  1.70473793 27457
GSAT0213 (PRN E04)      
1 41861U 16069C   21106.92552678  .00000047  00000-0  00000-0 0  9997
2 41861  54.7045 153.4189 0004930 272.5423  87.4833  1.70473723 27342
GSAT0214 (PRN E05)      
1 41862U 16069D   21105.89939793  .00000046  00000-0  00000-0 0  9999
2 41862  54.7027 153.4425 0004022 276.1225  83.9177  1.70473783 27458
GSAT0215 (PRN E21)      
1 43055U 17079A   21107.56320328  .00000008  00000-0  00000-0 0  9999
2 43055  56.0396 273.4407 0000994 324.2413  35.7175  1.70474402 20825
GSAT0216 (PRN E25)      
1 43056U 17079B   21107.26915545  .00000007  00000-0  00000-0 0  9997
2 43056  56.0406 273.4485 0002603 293.3105  66.6263  1.70474580 20836
GSAT0217 (PRN E27)      
1 43057U 17079C   21107.48927914  .00000008  00000-0  00000-0 0  9996
2 43057  56.0388 273.4429 0002554 316.9449  43.0002  1.70474462 20820
GSAT0218 (PRN E31)      
1 43058U 17079D   21107.12269359  .00000006  00000-0  00000-0 0  9998
2 43058  56.0388 273.4502 0002944 284.9562  74.9748  1.70474469 20845
GSAT0221 (PRN E15)      
1 43564U 18060A   21107.02119496 -.00000077  00000-0  00000-0 0  9995
2 43564  56.9866  32.7581 0004611 297.5294  62.4251  1.70475624 16991
GSAT0222 (PRN E33)      
1 43565U 18060B   21107.24103738 -.00000076  00000-0  00000-0 0  9991
2 43565  56.9896  32.7521 0004570 306.1562  53.8033  1.70475641 17046
GSAT0219 (PRN E36)      
1 43566U 18060C   21106.28844613 -.00000079  00000-0  00000-0 0  9992
2 43566  56.9893  32.7797 0004299 308.6863  51.2747  1.70475650 17008
GSAT0220 (PRN E13)      
1 43567U 18060D   21107.09482720 -.00000077  00000-0  00000-0 0  9998
2 43567  56.9895  32.7585 0004299 303.7415  56.2190  1.70475691 17007
